HST                     
1 20580U 90037B   22160.48857848  .00001377  00000+0  70556-4 0  9991
2 20580  28.4688 221.5798 0002323 312.8175  70.0799 15.10554103565018
POLAR                   
1 23802U 96013A   22159.55289280  .00000232  00000+0  00000+0 0  9997
2 23802  78.7624 241.7047 5818932 259.1746  33.9123  1.29847317125771
SWAS                    
1 25560U 98071A   22160.54713891  .00000918  00000+0  92685-4 0  9993
2 25560  69.8989   6.1030 0009256 316.2807  43.7616 14.94759085276844
CXO                     
1 25867U 99040B   22162.75903531  .00000497  00000+0  00000+0 0  9994
2 25867  45.4617 235.4297 8811838 234.0065   0.0664  0.37809389 11786
XMM-NEWTON              
1 25989U 99066A   22160.51850162 -.00000051  00000+0  00000+0 0  9997
2 25989  70.1244 304.8608 6049691  86.9151   0.2304  0.50133122 15638
TERRA                   
1 25994U 99068A   22160.50842891  .00000181  00000+0  50020-4 0  9999
2 25994  98.1368 232.6107 0001277  92.6324 324.7893 14.57137238195349
CLUSTER II-FM7 (SAMBA)  
1 26410U 00041A   22162.09977660  .00000805  00000+0  00000+0 0  9996
2 26410 134.1454 347.7141 5620465 199.1854   0.0013  0.44232405 13786
CLUSTER II-FM6 (SALSA)  
1 26411U 00041B   22162.06884990  .00001029  00000+0  00000+0 0  9996
2 26411 136.3208 351.2060 7267630 203.9406 359.9978  0.44224217 13832
CLUSTER II-FM5 (RUMBA)  
1 26463U 00045A   22162.07303369  .00001073  00000+0  00000+0 0  9993
2 26463 139.8651 351.4850 6781941 204.7421 359.9656  0.44223504 13728
CLUSTER II-FM8 (TANGO)  
1 26464U 00045B   22162.07842494  .00000805  00000+0  00000+0 0  9993
2 26464 134.1352 347.7016 5621718 199.1834 359.9823  0.44217926 13790
ODIN                    
1 26702U 01007A   22160.10544886  .00003283  00000+0  20641-3 0  9993
2 26702  97.5209 174.9983 0009180 327.5724  32.4940 15.09889041165010
TIMED                   
1 26998U 01055B   22160.44717050  .00000480  00000+0  55474-4 0  9994
2 26998  74.0722 295.5923 0001305 226.0562 134.0512 14.88667058111816
RHESSI                  
1 27370U 02004A   22160.04949224  .00016853  00000+0  36801-3 0  9993
2 27370  38.0329  55.0226 0004658 166.2472 193.8430 15.43553387125311
INTEGRAL                
1 27540U 02048A   22160.38613431  .00000680  00000+0  00000+0 0  9994
2 27540  74.9966  59.9808 8912102 298.5478 137.6350  0.37586970 21111
CORIOLIS                
1 27640U 03001A   22160.50641223  .00000054  00000+0  46315-4 0  9998
2 27640  98.7171 169.6173 0015286 118.2681  35.1525 14.19131245  5856
SORCE                   
1 27651U 03004A   22160.55665138  .00000651  00000+0  80301-4 0  9995
2 27651  39.9953 261.5855 0022389  55.4160 304.8738 14.89903046 51898
MOST                    
1 27843U 03031D   22160.46610275  .00000031  00000+0  34587-4 0  9997
2 27843  98.7069 168.1884 0010256 164.7845 195.3642 14.20685055982117
SCISAT 1                
1 27858U 03036A   22160.52107769  .00000240  00000+0  38632-4 0  9991
2 27858  73.9321 199.7523 0009221 245.3427 114.6787 14.77559221 14264
SWIFT                   
1 28485U 04047A   22159.95290566  .00002663  00000+0  14548-3 0  9994
2 28485  20.5582  10.0664 0010511 189.5976 170.4259 15.06379583962261
CLOUDSAT                
1 29107U 06016A   22160.53653654  .00000140  00000+0  36879-4 0  9991
2 29107  98.3278 120.6099 0002990 355.5714   4.5461 14.62978015857873
CALIPSO                 
1 29108U 06016B   22160.53581112  .00000477  00000+0  10267-3 0  9996
2 29108  98.3248 120.1776 0001593  82.6444 277.4939 14.62933941857863
HINODE (SOLAR-B)        
1 29479U 06041A   22160.51778109  .00000315  00000+0  68028-4 0  9997
2 29479  98.1209 175.7831 0017098 249.2551 110.6820 14.64821563839599
SJ-6C                   
1 29505U 06046A   22160.46681410  .00001127  00000+0  10545-3 0  9996
2 29505  97.7763 181.5436 0005533 136.2725 223.8941 14.96065625851504
SJ-6D                   
1 29506U 06046B   22160.57467834 -.00000153  00000+0 -90477-5 0  9995
2 29506  97.7968 181.8072 0000855 199.9155 160.2028 14.94033791850962
AGILE                   
1 31135U 07013A   22160.22880523  .00007953  00000+0  17465-3 0  9994
2 31135   2.4686 297.0533 0010378 321.4278  38.5035 15.37737922475686
AIM                     
1 31304U 07015A   22160.35161796  .00004658  00000+0  23538-3 0  9999
2 31304  97.8559  79.2514 0006556  57.3940 302.7925 15.17583738829964
FGRST (GLAST)           
1 33053U 08029A   22160.38367208  .00001107  00000+0  45618-4 0  9997
2 33053  25.5816 222.2025 0012396  86.9402 273.2551 15.12179701772474
WISE                    
1 36119U 09071A   22160.36841592  .00004524  00000+0  14197-3 0  9995
2 36119  97.2401 194.9536 0001902  25.3378 334.7958 15.33529831694268
SDO                     
1 36395U 10005A   22160.37688050 -.00000043  00000+0  00000+0 0  9996
2 36395  31.6398 109.3549 0001527 274.2293 267.9038  1.00271059 45338
CRYOSAT 2               
1 36508U 10013A   22160.60408893  .00000135  00000+0  32723-4 0  9995
2 36508  92.0348 282.1675 0002764 270.5499  89.5391 14.52012907644994
X-SAT                   
1 37389U 11015C   22160.43017747  .00000000  00000+0  17853-4 0  9999
2 37389  98.3342 194.1014 0013735 341.0644  19.0034 14.24424881579064
GCOM-W1 (SHIZUKU)       
1 38337U 12025A   22160.41400317  .00000217  00000+0  58256-4 0  9994
2 38337  98.2030 101.0277 0001179  86.0813  61.6444 14.57080806535142
NUSTAR                  
1 38358U 12031A   22160.21423615  .00001788  00000+0  11008-3 0  9995
2 38358   6.0274  63.6777 0011972 221.7810 138.1405 14.89342897543723
NEOSSAT                 
1 39089U 13009D   22160.50795476  .00000118  00000+0  56816-4 0  9995
2 39089  98.4232 357.0139 0010265 305.1148  54.9075 14.34662341486072
BRITE-AUSTRIA           
1 39091U 13009F   22160.54566729  .00000075  00000+0  40966-4 0  9990
2 39091  98.4066 358.0566 0009459 305.9798  54.0510 14.35272619486292
IRIS                    
1 39197U 13033A   22160.53407207  .00000456  00000+0  68177-4 0  9995
2 39197  97.9701 346.4485 0028587  56.4747 303.9189 14.79230957482803
HISAKI (SPRINT-A)       
1 39253U 13049A   22160.57146458  .00000071  00000+0  10784-4 0  9991
2 39253  29.7188 124.8053 0136816 353.2983   6.5764 13.55282186432031
CASSIOPE                
1 39265U 13055A   22160.58109693  .00006421  00000+0  17198-3 0  9992
2 39265  80.9650 275.6894 0622807 341.6240  16.3304 14.38554292451203
STSAT-3                 
1 39422U 13066G   22160.49825485  .00000920  00000+0  99347-4 0  9998
2 39422  97.4687 166.0771 0021300 310.8977  49.0411 14.90478918464657
SWARM B                 
1 39451U 13067A   22160.51034373  .00001443  00000+0  64599-4 0  9994
2 39451  87.7516  63.6908 0002731  81.9805 278.1750 15.20456716459728
SWARM A                 
1 39452U 13067B   22160.01894018  .00000472  00000+0  11116-4 0  9998
2 39452  87.3626 227.5783 0003605  93.5473 266.6194 15.38883810480636
SWARM C                 
1 39453U 13067C   22160.07763399  .00003321  00000+0  85345-4 0  9993
2 39453  87.3476 227.0405 0003727  93.1531 267.0150 15.38878461480602
BRITE-CA1 (TORONTO)     
1 40020U 14033L   22160.43719533  .00000328  00000+0  63932-4 0  9992
2 40020  97.7776 319.8050 0085476 289.3475  69.8503 14.67030721426481
OCO 2                   
1 40059U 14035A   22160.51948051  .00000185  00000+0  51187-4 0  9994
2 40059  98.2022 101.8643 0001493  85.9493 274.1876 14.57082196422175
BRITE-PL2 (HEWELIUSZ)   
1 40119U 14049B   22160.52819096  .00000615  00000+0  78116-4 0  9992
2 40119  97.8831 256.2346 0015809 267.7327  92.2078 14.85113250422835
RESURS P2               
1 40360U 14087A   22160.46867103  .00003511  00000+0  10049-3 0  9995
2 40360  97.2055 245.5287 0010794 115.2680 301.0674 15.36549249417034
MMS 1                   
1 40482U 15011A   22155.52030983 -.00000427  00000+0  00000+0 0  9993
2 40482  32.3028 105.5481 8661484  51.6075 215.2799  0.28453506 13263
MMS 2                   
1 40483U 15011B   22160.60655583 -.00000065  00000+0  00000+0 0  9996
2 40483  32.3090 105.5005 8666625  51.7316  15.8948  0.28442206 13340
MMS 3                   
1 40484U 15011C   22159.59669062 -.00000075  00000+0  00000+0 0  9991
2 40484  32.3165 105.5257 8664569  51.6783 272.5685  0.28440069 13249
MMS 4                   
1 40485U 15011D   22160.53876144 -.00000064  00000+0  00000+0 0  9997
2 40485  32.3076 105.4961 8665770  51.7391   8.9358  0.28442128 13238
ASTROSAT                
1 40930U 15052A   22160.23156044  .00001017  00000+0  53189-4 0  9993
2 40930   5.9962 236.9121 0008414  36.9911 323.0797 14.76640693361938
DAMPE                   
1 41173U 15078A   22160.47601742  .00000494  00000+0  22997-4 0  9998
2 41173  97.3761 151.3671 0012285 223.4435 288.8923 15.24426371360369
PISAT                   
1 41784U 16059B   22160.34829435  .00000374  00000+0  79952-4 0  9993
2 41784  97.9159 204.0152 0031516 192.6197 167.4221 14.63900470304500
HXMT (HUIYAN)           
1 42758U 17034A   22160.36202160  .00001488  00000+0  10221-3 0  9991
2 42758  43.0184  32.8316 0009442 237.4624 291.7485 15.10413514274956
FLYING LAPTOP           
1 42831U 17042G   22160.54750402  .00000870  00000+0  91291-4 0  9990
2 42831  97.4237  15.4654 0014708  39.8378 320.3971 14.91769469266910
PICSAT                  
1 43132U 18004X   22160.19452507  .00008368  00000+0  27972-3 0  9994
2 43132  97.3720 236.6180 0007907  40.0178 320.1644 15.31227749245149
ZHANGZHENG-1 (CSES)     
1 43194U 18015C   22160.50021419  .00004438  00000+0  20317-3 0  9993
2 43194  97.5216 291.2638 0012577 129.7181 294.8935 15.20958452241418
ICON                    
1 44628U 19068A   22159.94295516  .00001389  00000+0  11144-3 0  9992
2 44628  26.9904   4.2589 0018174 253.7544 106.1014 14.92832160145295
SALSAT                  
1 46495U 20068K   22160.58113847  .00001954  00000+0  14382-3 0  9991
2 46495  97.7298 101.8785 0015301 307.6328  52.3509 15.04480680 93003
IXPE                    
1 49954U 21121A   22160.34924241  .00001840  00000+0  10502-3 0  9991
2 49954   0.2302  81.6260 0011161 175.8729 102.3762 14.91359390 27220
